[{"OBJECT_NAME":"INTELSAT 14 (IS-14)","OBJECT_ID":"2009-064A","EPOCH":"2026-04-01T10:59:04.802208","MEAN_MOTION":1.00270423,"ECCENTRICITY":0.0002506,"INCLINATION":0.0372,"RA_OF_ASC_NODE":76.1919,"ARG_OF_PERICENTER":301.9405,"MEAN_ANOMALY":291.4461,"EPHEMERIS_TYPE":0,"CLASSIFICATION_TYPE":"U","NORAD_CAT_ID":36097,"ELEMENT_SET_NO":999,"REV_AT_EPOCH":5983,"BSTAR":0,"MEAN_MOTION_DOT":-2.83e-6,"MEAN_MOTION_DDOT":0},{"OBJECT_NAME":"EUTELSAT 36B","OBJECT_ID":"2009-065A","EPOCH":"2026-04-01T11:26:17.192832","MEAN_MOTION":1.00271898,"ECCENTRICITY":0.0005928,"INCLINATION":0.2988,"RA_OF_ASC_NODE":78.8319,"ARG_OF_PERICENTER":294.329,"MEAN_ANOMALY":38.7134,"EPHEMERIS_TYPE":0,"CLASSIFICATION_TYPE":"U","NORAD_CAT_ID":36101,"ELEMENT_SET_NO":999,"REV_AT_EPOCH":5993,"BSTAR":0,"MEAN_MOTION_DOT":1.03e-6,"MEAN_MOTION_DDOT":0},{"OBJECT_NAME":"INTELSAT 15 (IS-15)","OBJECT_ID":"2009-067A","EPOCH":"2026-03-31T09:55:57.001152","MEAN_MOTION":1.00269058,"ECCENTRICITY":0.00024383,"INCLINATION":0.0159,"RA_OF_ASC_NODE":251.2416,"ARG_OF_PERICENTER":125.09,"MEAN_ANOMALY":46.5846,"EPHEMERIS_TYPE":0,"CLASSIFICATION_TYPE":"U","NORAD_CAT_ID":36106,"ELEMENT_SET_NO":999,"REV_AT_EPOCH":4044,"BSTAR":0,"MEAN_MOTION_DOT":-1.98e-6,"MEAN_MOTION_DDOT":0},{"OBJECT_NAME":"WGS F3 (USA 211)","OBJECT_ID":"2009-068A","EPOCH":"2026-03-31T15:45:22.265280","MEAN_MOTION":1.00271162,"ECCENTRICITY":4.941e-5,"INCLINATION":0.4134,"RA_OF_ASC_NODE":85.7156,"ARG_OF_PERICENTER":343.2328,"MEAN_ANOMALY":226.3925,"EPHEMERIS_TYPE":0,"CLASSIFICATION_TYPE":"U","NORAD_CAT_ID":36108,"ELEMENT_SET_NO":999,"REV_AT_EPOCH":4581,"BSTAR":0,"MEAN_MOTION_DOT":5.2e-7,"MEAN_MOTION_DDOT":0},{"OBJECT_NAME":"DIRECTV 12","OBJECT_ID":"2009-075A","EPOCH":"2026-04-01T03:08:38.494176","MEAN_MOTION":1.00272432,"ECCENTRICITY":4.24e-5,"INCLINATION":0.0053,"RA_OF_ASC_NODE":275.1927,"ARG_OF_PERICENTER":116.8433,"MEAN_ANOMALY":101.8848,"EPHEMERIS_TYPE":0,"CLASSIFICATION_TYPE":"U","NORAD_CAT_ID":36131,"ELEMENT_SET_NO":999,"REV_AT_EPOCH":4578,"BSTAR":0,"MEAN_MOTION_DOT":-1.14e-6,"MEAN_MOTION_DDOT":0},{"OBJECT_NAME":"BEIDOU-2 G1","OBJECT_ID":"2010-001A","EPOCH":"2026-04-01T10:14:11.373792","MEAN_MOTION":1.00271526,"ECCENTRICITY":0.0004267,"INCLINATION":4.1148,"RA_OF_ASC_NODE":60.6105,"ARG_OF_PERICENTER":287.27,"MEAN_ANOMALY":135.925,"EPHEMERIS_TYPE":0,"CLASSIFICATION_TYPE":"U","NORAD_CAT_ID":36287,"ELEMENT_SET_NO":999,"REV_AT_EPOCH":5940,"BSTAR":0,"MEAN_MOTION_DOT":-2.86e-6,"MEAN_MOTION_DDOT":0},{"OBJECT_NAME":"SDO","OBJECT_ID":"2010-005A","EPOCH":"2026-03-31T11:58:45.029856","MEAN_MOTION":1.00274084,"ECCENTRICITY":6.17e-5,"INCLINATION":34.4901,"RA_OF_ASC_NODE":87.5132,"ARG_OF_PERICENTER":30.3558,"MEAN_ANOMALY":148.9016,"EPHEMERIS_TYPE":0,"CLASSIFICATION_TYPE":"U","NORAD_CAT_ID":36395,"ELEMENT_SET_NO":999,"REV_AT_EPOCH":5928,"BSTAR":0,"MEAN_MOTION_DOT":-5.3e-7,"MEAN_MOTION_DDOT":0},{"OBJECT_NAME":"INTELSAT 16 (IS-16)","OBJECT_ID":"2010-006A","EPOCH":"2026-04-01T08:51:38.786688","MEAN_MOTION":1.00270106,"ECCENTRICITY":0.000194,"INCLINATION":0.0184,"RA_OF_ASC_NODE":247.9555,"ARG_OF_PERICENTER":143.4917,"MEAN_ANOMALY":214.9695,"EPHEMERIS_TYPE":0,"CLASSIFICATION_TYPE":"U","NORAD_CAT_ID":36397,"ELEMENT_SET_NO":999,"REV_AT_EPOCH":5888,"BSTAR":0,"MEAN_MOTION_DOT":-2.54e-6,"MEAN_MOTION_DDOT":0},{"OBJECT_NAME":"EWS-G2 (GOES 15)","OBJECT_ID":"2010-008A","EPOCH":"2026-04-01T11:29:54.343680","MEAN_MOTION":1.00271184,"ECCENTRICITY":0.0003058,"INCLINATION":1.0773,"RA_OF_ASC_NODE":84.3862,"ARG_OF_PERICENTER":18.0206,"MEAN_ANOMALY":323.1896,"EPHEMERIS_TYPE":0,"CLASSIFICATION_TYPE":"U","NORAD_CAT_ID":36411,"ELEMENT_SET_NO":999,"REV_AT_EPOCH":5886,"BSTAR":0,"MEAN_MOTION_DOT":1.4e-7,"MEAN_MOTION_DDOT":0},{"OBJECT_NAME":"ECHOSTAR 14","OBJECT_ID":"2010-010A","EPOCH":"2026-04-01T09:29:33.615744","MEAN_MOTION":1.00270226,"ECCENTRICITY":0.0002179,"INCLINATION":0.0221,"RA_OF_ASC_NODE":201.2402,"ARG_OF_PERICENTER":179.3634,"MEAN_ANOMALY":192.6467,"EPHEMERIS_TYPE":0,"CLASSIFICATION_TYPE":"U","NORAD_CAT_ID":36499,"ELEMENT_SET_NO":999,"REV_AT_EPOCH":4578,"BSTAR":0,"MEAN_MOTION_DOT":0,"MEAN_MOTION_DDOT":0},{"OBJECT_NAME":"SES-1","OBJECT_ID":"2010-016A","EPOCH":"2026-04-01T10:43:06.331584","MEAN_MOTION":1.00270359,"ECCENTRICITY":0.0002662,"INCLINATION":0.0101,"RA_OF_ASC_NODE":178.3383,"ARG_OF_PERICENTER":196.3141,"MEAN_ANOMALY":234.9439,"EPHEMERIS_TYPE":0,"CLASSIFICATION_TYPE":"U","NORAD_CAT_ID":36516,"ELEMENT_SET_NO":999,"REV_AT_EPOCH":5826,"BSTAR":0,"MEAN_MOTION_DOT":0,"MEAN_MOTION_DDOT":0},{"OBJECT_NAME":"ASTRA 3B","OBJECT_ID":"2010-021A","EPOCH":"2026-04-01T06:10:32.473920","MEAN_MOTION":1.00270989,"ECCENTRICITY":0.0003547,"INCLINATION":1.2701,"RA_OF_ASC_NODE":84.479,"ARG_OF_PERICENTER":302.4533,"MEAN_ANOMALY":278.8063,"EPHEMERIS_TYPE":0,"CLASSIFICATION_TYPE":"U","NORAD_CAT_ID":36581,"ELEMENT_SET_NO":999,"REV_AT_EPOCH":5809,"BSTAR":0,"MEAN_MOTION_DOT":1.28e-6,"MEAN_MOTION_DDOT":0},{"OBJECT_NAME":"COMSATBW-2","OBJECT_ID":"2010-021B","EPOCH":"2026-03-31T06:10:02.040384","MEAN_MOTION":1.0027464,"ECCENTRICITY":0.0002781,"INCLINATION":0.0211,"RA_OF_ASC_NODE":148.894,"ARG_OF_PERICENTER":236.8002,"MEAN_ANOMALY":268.639,"EPHEMERIS_TYPE":0,"CLASSIFICATION_TYPE":"U","NORAD_CAT_ID":36582,"ELEMENT_SET_NO":999,"REV_AT_EPOCH":5817,"BSTAR":0,"MEAN_MOTION_DOT":7.5e-7,"MEAN_MOTION_DDOT":0},{"OBJECT_NAME":"BEIDOU-2 G3","OBJECT_ID":"2010-024A","EPOCH":"2026-04-01T11:34:38.889984","MEAN_MOTION":1.00272688,"ECCENTRICITY":0.0008371,"INCLINATION":4.3351,"RA_OF_ASC_NODE":61.8138,"ARG_OF_PERICENTER":328.6807,"MEAN_ANOMALY":52.6715,"EPHEMERIS_TYPE":0,"CLASSIFICATION_TYPE":"U","NORAD_CAT_ID":36590,"ELEMENT_SET_NO":999,"REV_AT_EPOCH":5800,"BSTAR":0,"MEAN_MOTION_DOT":-1.42e-6,"MEAN_MOTION_DDOT":0},{"OBJECT_NAME":"BADR-5","OBJECT_ID":"2010-025A","EPOCH":"2026-03-31T16:29:48.004224","MEAN_MOTION":1.00273654,"ECCENTRICITY":0.00023003,"INCLINATION":0.0692,"RA_OF_ASC_NODE":107.4938,"ARG_OF_PERICENTER":314.4333,"MEAN_ANOMALY":40.5496,"EPHEMERIS_TYPE":0,"CLASSIFICATION_TYPE":"U","NORAD_CAT_ID":36592,"ELEMENT_SET_NO":999,"REV_AT_EPOCH":5243,"BSTAR":0,"MEAN_MOTION_DOT":1.32e-6,"MEAN_MOTION_DDOT":0},{"OBJECT_NAME":"COMS 1","OBJECT_ID":"2010-032A","EPOCH":"2026-04-01T08:23:04.762752","MEAN_MOTION":1.00271743,"ECCENTRICITY":0.000113,"INCLINATION":4.6073,"RA_OF_ASC_NODE":76.4318,"ARG_OF_PERICENTER":301.3021,"MEAN_ANOMALY":65.8903,"EPHEMERIS_TYPE":0,"CLASSIFICATION_TYPE":"U","NORAD_CAT_ID":36744,"ELEMENT_SET_NO":999,"REV_AT_EPOCH":5032,"BSTAR":0,"MEAN_MOTION_DOT":-3.5e-6,"MEAN_MOTION_DDOT":0},{"OBJECT_NAME":"ARABSAT-5A","OBJECT_ID":"2010-032B","EPOCH":"2026-04-01T07:46:38.656128","MEAN_MOTION":1.00271666,"ECCENTRICITY":0.0003794,"INCLINATION":0.075,"RA_OF_ASC_NODE":48.5173,"ARG_OF_PERICENTER":351.8956,"MEAN_ANOMALY":296.387,"EPHEMERIS_TYPE":0,"CLASSIFICATION_TYPE":"U","NORAD_CAT_ID":36745,"ELEMENT_SET_NO":999,"REV_AT_EPOCH":5787,"BSTAR":0,"MEAN_MOTION_DOT":1.43e-6,"MEAN_MOTION_DDOT":0},{"OBJECT_NAME":"ECHOSTAR 15","OBJECT_ID":"2010-034A","EPOCH":"2026-04-01T10:41:59.268768","MEAN_MOTION":1.00272634,"ECCENTRICITY":0.0001952,"INCLINATION":0.0419,"RA_OF_ASC_NODE":74.4698,"ARG_OF_PERICENTER":297.1323,"MEAN_ANOMALY":219.8674,"EPHEMERIS_TYPE":0,"CLASSIFICATION_TYPE":"U","NORAD_CAT_ID":36792,"ELEMENT_SET_NO":999,"REV_AT_EPOCH":5755,"BSTAR":0,"MEAN_MOTION_DOT":-1.0e-7,"MEAN_MOTION_DDOT":0},{"OBJECT_NAME":"BEIDOU-2 IGSO-1","OBJECT_ID":"2010-036A","EPOCH":"2026-03-27T15:19:55.702560","MEAN_MOTION":1.00295665,"ECCENTRICITY":0.00574619,"INCLINATION":54.2909,"RA_OF_ASC_NODE":163.6978,"ARG_OF_PERICENTER":222.7538,"MEAN_ANOMALY":133.1758,"EPHEMERIS_TYPE":0,"CLASSIFICATION_TYPE":"U","NORAD_CAT_ID":36828,"ELEMENT_SET_NO":999,"REV_AT_EPOCH":5727,"BSTAR":0,"MEAN_MOTION_DOT":-1.5e-6,"MEAN_MOTION_DDOT":0},{"OBJECT_NAME":"NILESAT 201","OBJECT_ID":"2010-037A","EPOCH":"2026-04-01T09:27:13.610592","MEAN_MOTION":1.00271747,"ECCENTRICITY":0.0002744,"INCLINATION":0.0238,"RA_OF_ASC_NODE":147.1483,"ARG_OF_PERICENTER":235.6433,"MEAN_ANOMALY":301.76,"EPHEMERIS_TYPE":0,"CLASSIFICATION_TYPE":"U","NORAD_CAT_ID":36830,"ELEMENT_SET_NO":999,"REV_AT_EPOCH":5760,"BSTAR":0,"MEAN_MOTION_DOT":-6.7e-7,"MEAN_MOTION_DDOT":0},{"OBJECT_NAME":"RASCOM-QAF 1R","OBJECT_ID":"2010-037B","EPOCH":"2026-04-01T07:47:23.186688","MEAN_MOTION":1.00271021,"ECCENTRICITY":0.0006493,"INCLINATION":0.0213,"RA_OF_ASC_NODE":130.4309,"ARG_OF_PERICENTER":237.0574,"MEAN_ANOMALY":301.9263,"EPHEMERIS_TYPE":0,"CLASSIFICATION_TYPE":"U","NORAD_CAT_ID":36831,"ELEMENT_SET_NO":999,"REV_AT_EPOCH":5753,"BSTAR":0,"MEAN_MOTION_DOT":8.0e-8,"MEAN_MOTION_DDOT":0},{"OBJECT_NAME":"AEHF-1 (USA 214)","OBJECT_ID":"2010-039A","EPOCH":"2026-04-01T02:32:38.604768","MEAN_MOTION":1.00278764,"ECCENTRICITY":0.0004342,"INCLINATION":8.0314,"RA_OF_ASC_NODE":69.0513,"ARG_OF_PERICENTER":290.4638,"MEAN_ANOMALY":258.1889,"EPHEMERIS_TYPE":0,"CLASSIFICATION_TYPE":"U","NORAD_CAT_ID":36868,"ELEMENT_SET_NO":999,"REV_AT_EPOCH":5288,"BSTAR":0,"MEAN_MOTION_DOT":1.43e-6,"MEAN_MOTION_DDOT":0},{"OBJECT_NAME":"XM-5","OBJECT_ID":"2010-053A","EPOCH":"2026-04-01T10:39:59.811264","MEAN_MOTION":1.00270401,"ECCENTRICITY":0.0003689,"INCLINATION":0.0672,"RA_OF_ASC_NODE":269.6107,"ARG_OF_PERICENTER":268.1152,"MEAN_ANOMALY":56.8669,"EPHEMERIS_TYPE":0,"CLASSIFICATION_TYPE":"U","NORAD_CAT_ID":37185,"ELEMENT_SET_NO":999,"REV_AT_EPOCH":5671,"BSTAR":0,"MEAN_MOTION_DOT":-3.2e-7,"MEAN_MOTION_DDOT":0},{"OBJECT_NAME":"BSAT-3B","OBJECT_ID":"2010-056B","EPOCH":"2026-04-01T10:00:32.914368","MEAN_MOTION":1.00270955,"ECCENTRICITY":8.38e-5,"INCLINATION":0.0255,"RA_OF_ASC_NODE":188.0148,"ARG_OF_PERICENTER":100.4135,"MEAN_ANOMALY":161.3187,"EPHEMERIS_TYPE":0,"CLASSIFICATION_TYPE":"U","NORAD_CAT_ID":37207,"ELEMENT_SET_NO":999,"REV_AT_EPOCH":5132,"BSTAR":0,"MEAN_MOTION_DOT":-3.6e-6,"MEAN_MOTION_DDOT":0}]
